QIANFAN-1               
1 60379U 24140A   25344.47069472  .00000129  00000+0  18115-3 0  9993
2 60379  88.9757 299.5149 0015939 217.5965 142.4073 13.50977463 67045
QIANFAN-2               
1 60380U 24140B   25344.49969675  .00000141  00000+0  19925-3 0  9995
2 60380  88.9744 299.3515 0012013 185.5063 174.5958 13.50981118 67108
QIANFAN-3               
1 60381U 24140C   25344.50786177  .00000137  00000+0  19298-3 0  9990
2 60381  88.9736 299.4835 0012740 199.6439 160.4222 13.50981637 67010
QIANFAN-4               
1 60382U 24140D   25344.40897698  .00000128  00000+0  18001-3 0  9992
2 60382  88.9761 299.3908 0012143 188.6917 171.4026 13.50981793 67124
QIANFAN-5               
1 60383U 24140E   25344.45848097  .00000133  00000+0  18704-3 0  9993
2 60383  88.9736 299.5140 0013713 212.6555 147.3749 13.50979294 66998
QIANFAN-6               
1 60384U 24140F   25344.40501068  .00000129  00000+0  18135-3 0  9996
2 60384  88.9763 299.2651 0012087 195.1046 164.9746 13.50979750 67187
QIANFAN-7               
1 60385U 24140G   25344.43171633  .00001056  00000+0  42222-3 0  9995
2 60385  88.9779 293.9919 0017105  52.4465 307.8280 14.27644125 70061
QIANFAN-8               
1 60386U 24140H   25344.41326566  .00000118  00000+0  16371-3 0  9995
2 60386  88.9764 299.5018 0015460 199.1312 160.9261 13.50977647 67033
